1 27424U 02022A   12271.89343716 -.00000877  00000-0 -18457-3 0  4389
2 27424 098.2037 210.8702 0001795 072.3318 287.8014 14.57124311553323